*******************************************************************************
 Revised: January 29, 2025             Uranus                               799
 
 PHYSICAL DATA:
  Mass x10^24 (kg)      = 86.813          Density (g/cm^3)       =  1.271
  Equat. radius (1 bar) = 25559+-4 km     Polar radius (km)      = 24973+-20
  Vol. Mean Radius (km) = 25362+-12       Flattening             =  0.02293
  Geometric Albedo      = 0.51
  Sid. rot. period (III)= 17.24+-0.01 h   Sid. rot. rate (rad/s) = -0.000101237
  Mean solar day, h     =~17.24           Rocky core mass (Mc/M) =  0.0012        
  GM (km^3/s^2)         = 5793950.6103    GM 1-sigma (km^3/s^2)  = +-4.3 
  Equ. grav, ge (m/s^2) =  8.87           Pol. grav, gp (m/s^2)  =   9.19+-0.02
  Visual magnitude V(1,0)= -7.11
  Vis. mag. (opposition)=  +5.52          Obliquity to orbit     = 97.77 deg
  Sidereal orbit period = 84.0120465 y    Sidereal orbit period  = 30685.4 d
  Mean daily motion     = 0.01176904 dg/d Mean orbit velocity    =  6.8 km/s
  Atmos. temp. (1 bar)  =  76+-2 K        Escape speed, km/s     =  21.3           
  Aroche(ice)/Rp        =  2.20           Hill's sphere rad., Rp = 2700
                                 Perihelion   Aphelion    Mean
  Solar Constant (W/m^2)         4.09         3.39        3.71
  Maximum Planetary IR (W/m^2)   0.72         0.55        0.63
  Minimum Planetary IR (W/m^2)   0.72         0.55        0.63
*******************************************************************************


*******************************************************************************
Ephemeris / WWW_USER Sun Sep 14 13:04:50 2025 Pasadena, USA      / Horizons
*******************************************************************************
Target body name: Uranus (799)                    {source: ura183_merged}
Center body name: Solar System Barycenter (0)     {source: DE441}
Center-site name: BODY CENTER
*******************************************************************************
Start time      : A.D. 2000-Jan-01 00:00:00.0000 TDB
Stop  time      : A.D. 2100-Jan-01 00:00:00.0000 TDB
Step-size       : 14400 minutes
*******************************************************************************
Center geodetic : 0.0, 0.0, 0.0                   {E-lon(deg),Lat(deg),Alt(km)}
Center cylindric: 0.0, 0.0, 0.0                   {E-lon(deg),Dxy(km),Dz(km)}
Center radii    : (undefined)
Output units    : AU-D
Calendar mode   : Mixed Julian/Gregorian
Output type     : GEOMETRIC cartesian states
Output format   : 3 (position, velocity, LT, range, range-rate)
Reference frame : Ecliptic of J2000.0
*******************************************************************************
            JDTDB,            Calendar Date (TDB),                      X,                      Y,                      Z,                     VX,                     VY,                     VZ,                     LT,                     RG,                     RR,
**************************************************************************************************************************************************************************************************************************************************************************
$$SOE
2481044.500000000, A.D. 2080-Oct-07 00:00:00.0000,  1.089947399515167E+01, -1.650357541947029E+01, -2.021735341268146E-01,  3.252757288743716E-03,  1.984411697341703E-03, -3.487413362606640E-05,  1.142337680231940E-01,  1.977896380337031E+01,  1.370398381146371E-04,
2481054.500000000, A.D. 2080-Oct-17 00:00:00.0000,  1.093198142688306E+01, -1.648369961055775E+01, -2.025201488552840E-01,  3.248675569647978E-03,  1.990735171082677E-03, -3.462450404127443E-05,  1.142416775352676E-01,  1.978033329293291E+01,  1.368426175984036E-04,
2481064.500000000, A.D. 2080-Oct-27 00:00:00.0000,  1.096444699482749E+01, -1.646376065867466E+01, -2.028661359996891E-01,  3.244586301011161E-03,  1.997035016078143E-03, -3.447440906749565E-05,  1.142495728320656E-01,  1.978170032119688E+01,  1.366607335133292E-04,
2481074.500000000, A.D. 2080-Nov-06 00:00:00.0000,  1.099687089482405E+01, -1.644375873243460E+01, -2.032115709229123E-01,  3.240281548453788E-03,  2.003351295260235E-03, -3.446018335947640E-05,  1.142574552713063E-01,  1.978306512324378E+01,  1.363456667027184E-04,
2481084.500000000, A.D. 2080-Nov-16 00:00:00.0000,  1.102925283538510E+01, -1.642369381009018E+01, -2.035559357203062E-01,  3.236175100140843E-03,  2.009604636680606E-03, -3.450003648464020E-05,  1.142653237018723E-01,  1.978442749976384E+01,  1.361922074365031E-04,
2481094.500000000, A.D. 2080-Nov-26 00:00:00.0000,  1.106159230459979E+01, -1.640356594416845E+01, -2.038995804690351E-01,  3.231935563624821E-03,  2.015884979665730E-03, -3.447338620635931E-05,  1.142731766628277E-01,  1.978578719780387E+01,  1.359400281547853E-04,
2481104.500000000, A.D. 2080-Dec-06 00:00:00.0000,  1.109388918025133E+01, -1.638337525421818E+01, -2.042427193506060E-01,  3.227590902486922E-03,  2.022210687244098E-03, -3.420578318713544E-05,  1.142810142525190E-01,  1.978714423439203E+01,  1.355873040375038E-04,
2481114.500000000, A.D. 2080-Dec-16 00:00:00.0000,  1.112614393024438E+01, -1.636312191759969E+01, -2.045850613156958E-01,  3.223272718401132E-03,  2.028486486581240E-03, -3.416966872995353E-05,  1.142888387291956E-01,  1.978849900053207E+01,  1.352914693999297E-04,
2481124.500000000, A.D. 2080-Dec-26 00:00:00.0000,  1.115835613199846E+01, -1.634280591472611E+01, -2.049263067956341E-01,  3.219040563037944E-03,  2.034741651429477E-03, -3.406385732216571E-05,  1.142966485290975E-01,  1.978985122546734E+01,  1.350588066494230E-04,
2481134.500000000, A.D. 2081-Jan-05 00:00:00.0000,  1.119052547973345E+01, -1.632242731347781E+01, -2.052665897427328E-01,  3.214987013564459E-03,  2.040952484367974E-03, -3.391388750273202E-05,  1.143044429023810E-01,  1.979120077936643E+01,  1.349618415656913E-04,
2481144.500000000, A.D. 2081-Jan-15 00:00:00.0000,  1.122265211301672E+01, -1.630198634624740E+01, -2.056065159520035E-01,  3.210615917215422E-03,  2.047208798178301E-03, -3.385378607932768E-05,  1.143122233607031E-01,  1.979254792396465E+01,  1.346474542261092E-04,
2481154.500000000, A.D. 2081-Jan-25 00:00:00.0000,  1.125473609173067E+01, -1.628148308770841E+01, -2.059456952504591E-01,  3.206256784987833E-03,  2.053444162041241E-03, -3.383917537268685E-05,  1.143199903494479E-01,  1.979389273637785E+01,  1.343559162135965E-04,
2481164.500000000, A.D. 2081-Feb-04 00:00:00.0000,  1.128677710311823E+01, -1.626091754991261E+01, -2.062838749325835E-01,  3.201945144118362E-03,  2.059643021342820E-03, -3.392674576834608E-05,  1.143277428032173E-01,  1.979523503213809E+01,  1.341208791932891E-04,
2481174.500000000, A.D. 2081-Feb-14 00:00:00.0000,  1.131877452007522E+01, -1.624028974752079E+01, -2.066213061942679E-01,  3.197579581449559E-03,  2.065889779107530E-03, -3.367557733129097E-05,  1.143354786545246E-01,  1.979657445327111E+01,  1.338106141193212E-04,
2481184.500000000, A.D. 2081-Feb-24 00:00:00.0000,  1.135072873383945E+01, -1.621959989822356E+01, -2.069580933038040E-01,  3.193232174765862E-03,  2.072111546967274E-03, -3.349199896613838E-05,  1.143432001416131E-01,  1.979791138731675E+01,  1.335304190510615E-04,
2481194.500000000, A.D. 2081-Mar-06 00:00:00.0000,  1.138263991527651E+01, -1.619884813153655E+01, -2.072940625206373E-01,  3.188804332632445E-03,  2.078318401666905E-03, -3.345629585115298E-05,  1.143509083513326E-01,  1.979924602245721E+01,  1.332163158910682E-04,
2481204.500000000, A.D. 2081-Mar-16 00:00:00.0000,  1.141450764142298E+01, -1.617803441828056E+01, -2.076288364713571E-01,  3.184648552692652E-03,  2.084456951723175E-03, -3.339803006924428E-05,  1.143586016400693E-01,  1.980057807410956E+01,  1.331129483095875E-04,
2481214.500000000, A.D. 2081-Mar-26 00:00:00.0000,  1.144633165076506E+01, -1.615715889987570E+01, -2.079629932206829E-01,  3.180331795803982E-03,  2.090613798943582E-03, -3.337791585574855E-05,  1.143662797553764E-01,  1.980190749856407E+01,  1.329010610680315E-04,
2481224.500000000, A.D. 2081-Apr-05 00:00:00.0000,  1.147811194378957E+01, -1.613622172217376E+01, -2.082967304526961E-01,  3.175817555737811E-03,  2.096817444509230E-03, -3.324796547504826E-05,  1.143739433117602E-01,  1.980323440221911E+01,  1.325340907188681E-04,
2481234.500000000, A.D. 2081-Apr-15 00:00:00.0000,  1.150984873147226E+01, -1.611522298348744E+01, -2.086295833646453E-01,  3.171364825749829E-03,  2.102966454026961E-03, -3.332562158358262E-05,  1.143815933678904E-01,  1.980455896837772E+01,  1.322477717369205E-04,
2481244.500000000, A.D. 2081-Apr-25 00:00:00.0000,  1.154154138276764E+01, -1.609416264335689E+01, -2.089614147799308E-01,  3.166932261939006E-03,  2.109124734819209E-03, -3.322231599880643E-05,  1.143892275271388E-01,  1.980588078207655E+01,  1.319620900072389E-04,
2481254.500000000, A.D. 2081-May-05 00:00:00.0000,  1.157318971476125E+01, -1.607304080212315E+01, -2.092923837273692E-01,  3.162646032574616E-03,  2.115260732288145E-03, -3.296752726708309E-05,  1.143968455663561E-01,  1.980719980467853E+01,  1.317768466281427E-04,
2481264.500000000, A.D. 2081-May-15 00:00:00.0000,  1.160479413931262E+01, -1.605185771617942E+01, -2.096228317262320E-01,  3.158151681353390E-03,  2.121405463107249E-03, -3.289267195031398E-05,  1.144044500122846E-01,  1.980851647367551E+01,  1.314634808318357E-04,
2481274.500000000, A.D. 2081-May-25 00:00:00.0000,  1.163635458724070E+01, -1.603061342290071E+01, -2.099522956050046E-01,  3.153774157816964E-03,  2.127504758995430E-03, -3.287340716397861E-05,  1.144120407001159E-01,  1.980983076053180E+01,  1.312545230863941E-04,
2481284.500000000, A.D. 2081-Jun-04 00:00:00.0000,  1.166787068174355E+01, -1.600930795638832E+01, -2.102807665463036E-01,  3.149463408220333E-03,  2.133561867491080E-03, -3.296604907883902E-05,  1.144196164325940E-01,  1.981114245794897E+01,  1.311188849865898E-04,
